{
  "type": "FeatureCollection",
  "features": [
    {
      "type": "Feature",
      "properties": {
        "norad_id": 35052,
        "name": "IRIDIUM 33 DEB",
        "group": "iridium-33-debris",
        "lat": 0.3837372959959591,
        "lon": 21.254916434401327,
        "alt_km": 766.3399980863787,
        "timestamp": "2025-12-10T23:33:13.203385+00:00",
        "meta_object_name": "IRIDIUM 33 DEB",
        "meta_object_id": "1997-051NY",
        "meta_epoch": "2025-12-10T08:31:35.753952",
        "meta_mean_motion": 14.38488102,
        "meta_eccentricity": 0.00136984,
        "meta_inclination": 86.3312,
        "meta_ra_of_asc_node": 21.4986,
        "meta_arg_of_pericenter": 91.6978,
        "meta_mean_anomaly": 268.579,
        "meta_ephemeris_type": 0,
        "meta_classification_type": "U",
        "meta_norad_cat_id": 35052,
        "meta_element_set_no": 999,
        "meta_rev_at_epoch": 87241,
        "meta_bstar": 0.00028271325,
        "meta_mean_motion_dot": 8.84e-06,
        "meta_mean_motion_ddot": 0,
        "tle_line1": "1 35052U 97051NY  25344.35527493  .00000884  00000+0  28271-3 0  9995",
        "tle_line2": "2 35052  86.3312  21.4986 0013698  91.6978 268.5790 14.38488102872415"
      },
      "geometry": {
        "type": "Point",
        "coordinates": [
          21.254916434401327,
          0.3837372959959591
        ]
      }
    },
    {
      "type": "Feature",
      "properties": {
        "norad_id": 35080,
        "name": "IRIDIUM 33 DEB",
        "group": "iridium-33-debris",
        "lat": -56.26250467624067,
        "lon": -121.08187285737927,
        "alt_km": 591.4700832743829,
        "timestamp": "2025-12-10T23:33:13.203394+00:00",
        "meta_object_name": "IRIDIUM 33 DEB",
        "meta_object_id": "1997-051PF",
        "meta_epoch": "2025-12-10T11:10:44.628384",
        "meta_mean_motion": 14.85584115,
        "meta_eccentricity": 0.006122,
        "meta_inclination": 86.2065,
        "meta_ra_of_asc_node": 53.4628,
        "meta_arg_of_pericenter": 187.2858,
        "meta_mean_anomaly": 172.7483,
        "meta_ephemeris_type": 0,
        "meta_classification_type": "U",
        "meta_norad_cat_id": 35080,
        "meta_element_set_no": 999,
        "meta_rev_at_epoch": 69654,
        "meta_bstar": 0.011322866,
        "meta_mean_motion_dot": 0.00102609,
        "meta_mean_motion_ddot": 0,
        "tle_line1": "1 35080U 97051PF  25344.46579431  .00102609  00000+0  11323-1 0  9993",
        "tle_line2": "2 35080  86.2065  53.4628 0061220 187.2858 172.7483 14.85584115696547"
      },
      "geometry": {
        "type": "Point",
        "coordinates": [
          -121.08187285737927,
          -56.26250467624067
        ]
      }
    },
    {
      "type": "Feature",
      "properties": {
        "norad_id": 35297,
        "name": "IRIDIUM 33 DEB",
        "group": "iridium-33-debris",
        "lat": -45.70579144181883,
        "lon": -112.77555990578365,
        "alt_km": 746.4385251428794,
        "timestamp": "2025-12-10T23:33:13.203404+00:00",
        "meta_object_name": "IRIDIUM 33 DEB",
        "meta_object_id": "1997-051PM",
        "meta_epoch": "2025-12-06T00:31:29.302752",
        "meta_mean_motion": 14.45108459,
        "meta_eccentricity": 0.00170329,
        "meta_inclination": 86.3867,
        "meta_ra_of_asc_node": 65.6268,
        "meta_arg_of_pericenter": 161.2449,
        "meta_mean_anomaly": 198.9384,
        "meta_ephemeris_type": 0,
        "meta_classification_type": "U",
        "meta_norad_cat_id": 35297,
        "meta_element_set_no": 999,
        "meta_rev_at_epoch": 70329,
        "meta_bstar": 0.0012426888,
        "meta_mean_motion_dot": 4.371e-05,
        "meta_mean_motion_ddot": 0,
        "tle_line1": "1 35297U 97051PM  25340.02186693  .00004371  00000+0  12427-2 0  9999",
        "tle_line2": "2 35297  86.3867  65.6268 0017032 161.2449 198.9384 14.45108459703293"
      },
      "geometry": {
        "type": "Point",
        "coordinates": [
          -112.77555990578365,
          -45.70579144181883
        ]
      }
    },
    {
      "type": "Feature",
      "properties": {
        "norad_id": 35299,
        "name": "IRIDIUM 33 DEB",
        "group": "iridium-33-debris",
        "lat": -6.2440974174282005,
        "lon": -145.64145433139618,
        "alt_km": 750.7161642108667,
        "timestamp": "2025-12-10T23:33:13.203413+00:00",
        "meta_object_name": "IRIDIUM 33 DEB",
        "meta_object_id": "1997-051PP",
        "meta_epoch": "2025-12-10T11:19:59.281824",
        "meta_mean_motion": 14.40842438,
        "meta_eccentricity": 0.00589237,
        "meta_inclination": 86.2883,
        "meta_ra_of_asc_node": 34.1732,
        "meta_arg_of_pericenter": 109.5989,
        "meta_mean_anomaly": 316.372,
        "meta_ephemeris_type": 0,
        "meta_classification_type": "U",
        "meta_norad_cat_id": 35299,
        "meta_element_set_no": 999,
        "meta_rev_at_epoch": 86298,
        "meta_bstar": 0.0011317455,
        "meta_mean_motion_dot": 3.72e-05,
        "meta_mean_motion_ddot": 0,
        "tle_line1": "1 35299U 97051PP  25344.47221391  .00003720  00000+0  11317-2 0  9993",
        "tle_line2": "2 35299  86.2883  34.1732 0058923 109.5989 316.3720 14.40842438862986"
      },
      "geometry": {
        "type": "Point",
        "coordinates": [
          -145.64145433139618,
          -6.2440974174282005
        ]
      }
    },
    {
      "type": "Feature",
      "properties": {
        "norad_id": 35480,
        "name": "IRIDIUM 33 DEB",
        "group": "iridium-33-debris",
        "lat": -49.456687538539285,
        "lon": -150.0539776983087,
        "alt_km": 739.0827258257368,
        "timestamp": "2025-12-10T23:33:13.203422+00:00",
        "meta_object_name": "IRIDIUM 33 DEB",
        "meta_object_id": "1997-051QA",
        "meta_epoch": "2025-12-09T19:59:43.135296",
        "meta_mean_motion": 14.49744632,
        "meta_eccentricity": 0.00159269,
        "meta_inclination": 86.357,
        "meta_ra_of_asc_node": 26.1722,
        "meta_arg_of_pericenter": 113.2937,
        "meta_mean_anomaly": 246.9945,
        "meta_ephemeris_type": 0,
        "meta_classification_type": "U",
        "meta_norad_cat_id": 35480,
        "meta_element_set_no": 999,
        "meta_rev_at_epoch": 86989,
        "meta_bstar": 0.0009193458,
        "meta_mean_motion_dot": 3.565e-05,
        "meta_mean_motion_ddot": 0,
        "tle_line1": "1 35480U 97051QA  25343.83313814  .00003565  00000+0  91935-3 0  9998",
        "tle_line2": "2 35480  86.3570  26.1722 0015926 113.2937 246.9945 14.49744632869893"
      },
      "geometry": {
        "type": "Point",
        "coordinates": [
          -150.0539776983087,
          -49.456687538539285
        ]
      }
    },
    {
      "type": "Feature",
      "properties": {
        "norad_id": 35484,
        "name": "IRIDIUM 33 DEB",
        "group": "iridium-33-debris",
        "lat": 84.29621585637844,
        "lon": 33.151076223808055,
        "alt_km": 552.7759674985546,
        "timestamp": "2025-12-10T23:33:13.203431+00:00",
        "meta_object_name": "IRIDIUM 33 DEB",
        "meta_object_id": "1997-051QE",
        "meta_epoch": "2025-12-09T18:19:22.021248",
        "meta_mean_motion": 14.98336228,
        "meta_eccentricity": 0.00232979,
        "meta_inclination": 86.3609,
        "meta_ra_of_asc_node": 354.1372,
        "meta_arg_of_pericenter": 134.8315,
        "meta_mean_anomaly": 225.4815,
        "meta_ephemeris_type": 0,
        "meta_classification_type": "U",
        "meta_norad_cat_id": 35484,
        "meta_element_set_no": 999,
        "meta_rev_at_epoch": 61971,
        "meta_bstar": 0.0036943713,
        "meta_mean_motion_dot": 0.00044475,
        "meta_mean_motion_ddot": 0,
        "tle_line1": "1 35484U 97051QE  25343.76344932  .00044475  00000+0  36944-2 0  9992",
        "tle_line2": "2 35484  86.3609 354.1372 0023297 134.8315 225.4815 14.98336228619718"
      },
      "geometry": {
        "type": "Point",
        "coordinates": [
          33.151076223808055,
          84.29621585637844
        ]
      }
    },
    {
      "type": "Feature",
      "properties": {
        "norad_id": 35488,
        "name": "IRIDIUM 33 DEB",
        "group": "iridium-33-debris",
        "lat": -66.70333216933307,
        "lon": -66.89633068517811,
        "alt_km": 636.207219601305,
        "timestamp": "2025-12-10T23:33:13.203440+00:00",
        "meta_object_name": "IRIDIUM 33 DEB",
        "meta_object_id": "1997-051QJ",
        "meta_epoch": "2025-12-10T07:39:38.233728",
        "meta_mean_motion": 14.82954928,
        "meta_eccentricity": 0.00301497,
        "meta_inclination": 86.3246,
        "meta_ra_of_asc_node": 301.994,
        "meta_arg_of_pericenter": 50.6144,
        "meta_mean_anomaly": 309.7742,
        "meta_ephemeris_type": 0,
        "meta_classification_type": "U",
        "meta_norad_cat_id": 35488,
        "meta_element_set_no": 999,
        "meta_rev_at_epoch": 88230,
        "meta_bstar": 0.0023681949,
        "meta_mean_motion_dot": 0.0001943,
        "meta_mean_motion_ddot": 0,
        "tle_line1": "1 35488U 97051QJ  25344.31919252  .00019430  00000+0  23682-2 0  9999",
        "tle_line2": "2 35488  86.3246 301.9940 0030149  50.6144 309.7742 14.82954928882307"
      },
      "geometry": {
        "type": "Point",
        "coordinates": [
          -66.89633068517811,
          -66.70333216933307
        ]
      }
    }
  ]
}